NORAD_CAT_ID,OBJECT_NAME,OBJECT_TYPE,EPOCH,MEAN_MOTION,ECCENTRICITY,INCLINATION,RA_OF_ASC_NODE,ARG_OF_PERICENTER,MEAN_ANOMALY,BSTAR,MEAN_MOTION_DOT,MEAN_MOTION_DDOT,TLE_LINE0,TLE_LINE1,TLE_LINE2,SEMIMAJOR_AXIS,PERIOD,APOGEE,PERIGEE,DECAYED
50822.0,STARLINK-3343,PAYLOAD,2022-03-08 14:00:01,15.55187093,0.0001668,53.2177,259.4646,34.7599,295.1736,-0.011364,-0.00714764,0.0,0 STARLINK-3343,1 50822U 22001V   22067.58334491 -.00714764  00000-0 -11364-1 0  9993,2 50822  53.2177 259.4646 0001668  34.7599 295.1736 15.55187093  3705,6779.746,92.593,402.742,400.48,0.0
50822.0,STARLINK-3343,PAYLOAD,2022-03-08 22:00:00,15.54676073,0.0001828,53.2177,257.8606,29.1336,7.7714,-0.011569,-0.00714125,0.0,0 STARLINK-3343,1 50822U 22001V   22067.91667824 -.00714125  00000-0 -11569-1 0  9997,2 50822  53.2177 257.8606 0001828  29.1336   7.7714 15.54676073  3712,6781.231,92.624,404.336,401.857,0.0
50822.0,STARLINK-3343,PAYLOAD,2022-03-09 14:00:01,15.53654874,0.000211,53.2177,254.6507,29.2478,139.764,-0.011954,-0.00711036,0.0,0 STARLINK-3343,1 50822U 22001V   22068.58334491 -.00711036  00000-0 -11954-1 0  9998,2 50822  53.2177 254.6507 0002110  29.2478 139.7640 15.53654874 10985,6784.203,92.685,407.499,404.636,0.0
50822.0,STARLINK-3343,PAYLOAD,2022-03-09 22:00:01,15.53143832,0.0001888,53.2175,253.0501,33.7675,200.4419,-0.012149,-0.00709364,0.0,0 STARLINK-3343,1 50822U 22001V   22068.91668981 -.00709364  00000-0 -12149-1 0  9997,2 50822  53.2175 253.0501 0001888  33.7675 200.4419 15.53143832  3697,6785.691,92.715,408.837,406.275,0.0
50822.0,STARLINK-3343,PAYLOAD,2022-03-10 14:00:01,15.52127626,0.0001571,53.2176,249.8478,37.6593,324.9137,-0.012722,-0.00715278,0.0,0 STARLINK-3343,1 50822U 22001V   22069.58334491 -.00715278  00000-0 -12722-1 0  9995,2 50822  53.2176 249.8478 0001571  37.6593 324.9137 15.52127626  3685,6788.651999999999,92.776,411.584,409.451,0.0
50822.0,STARLINK-3343,PAYLOAD,2022-03-10 20:00:01,15.51744846,0.0001615,53.2174,248.6503,40.8922,279.2089,-0.012896,-0.00724286,0.0,0 STARLINK-3343,1 50822U 22001V   22069.83334491 -.00724286  00000-0 -12896-1 0  9994,2 50822  53.2174 248.6503 0001615  40.8922 279.2089 15.51744846 11179,6789.768,92.799,412.73,410.537,0.0
50822.0,STARLINK-3343,PAYLOAD,2022-03-10 22:00:01,15.51613616,0.0001705,53.2174,248.251,34.328,31.6054,-0.012841,-0.00709257,0.0,0 STARLINK-3343,1 50822U 22001V   22069.91668981 -.00709257  00000-0 -12841-1 0  9998,2 50822  53.2174 248.2510 0001705  34.3280  31.6054 15.51613616  3700,6790.151,92.807,413.174,410.859,0.0
50822.0,STARLINK-3343,PAYLOAD,2022-03-11 14:00:01,15.50595186,0.000186,53.2176,245.0559,37.3247,153.2963,-0.013353,-0.00719998,0.0,0 STARLINK-3343,1 50822U 22001V   22070.58334491 -.00719998  00000-0 -13353-1 0  9991,2 50822  53.2176 245.0559 0001860  37.3247 153.2963 15.50595186  3674,6793.124,92.868,416.253,413.726,0.0
50822.0,STARLINK-3343,PAYLOAD,2022-03-11 20:00:01,15.50213276,0.0001781,53.2175,243.8611,39.7475,107.0224,-0.0135539999999999,-0.00720854,0.0,0 STARLINK-3343,1 50822U 22001V   22070.83334491 -.00720854  00000-0 -13554-1 0  9995,2 50822  53.2175 243.8611 0001781  39.7475 107.0224 15.50213276 11335,6794.24,92.89,417.315,414.895,0.0
50822.0,STARLINK-3343,PAYLOAD,2022-03-11 22:00:00,15.5008264,0.000167,53.2176,243.4626,42.7482,209.3296,-0.013507,-0.00715421,0.0,0 STARLINK-3343,1 50822U 22001V   22070.91667824 -.00715421  00000-0 -13507-1 0  9995,2 50822  53.2176 243.4626 0001670  42.7482 209.3296 15.50082640  3680,6794.621999999999,92.898,417.621,415.352,0.0
50822.0,STARLINK-3343,PAYLOAD,2022-03-12 14:00:01,15.48967115,0.0001778,53.2178,240.2759,35.9609,337.2003,-0.00058954,-0.00032707,0.0,0 STARLINK-3343,1 50822U 22001V   22071.58334491 -.00032707  00000-0 -58954-3 0  9996,2 50822  53.2178 240.2759 0001778  35.9609 337.2003 15.48967115 11455,6797.8830000000025,92.965,420.957,418.54,0.0
50822.0,STARLINK-3343,PAYLOAD,2022-03-12 22:00:00,15.48883114,0.0001724,53.2166,238.6876,41.7233,31.2645,0.001884,0.00104162,0.0,0 STARLINK-3343,1 50822U 22001V   22071.91667824  .00104162  00000-0  18840-2 0  9994,2 50822  53.2166 238.6876 0001724  41.7233  31.2645 15.48883114  3700,6798.129,92.97,421.166,418.822,0.0
50822.0,STARLINK-3343,PAYLOAD,2022-03-13 06:00:00,15.48991825,0.0001745,53.2122,237.1015,36.2831,96.5589,0.0011309,0.00062248,0.0,0 STARLINK-3343,1 50822U 22001V   22072.25001157  .00062248  00000-0  11309-2 0  9994,2 50822  53.2122 237.1015 0001745  36.2831  96.5589 15.48991825 11559,6797.811,92.964,420.862,418.49,0.0
50822.0,STARLINK-3343,PAYLOAD,2022-03-13 12:00:00,15.48990123,0.00017,53.2124,235.9082,35.4493,52.2643,-0.00087176,-0.00048095,0.0,0 STARLINK-3343,1 50822U 22001V   22072.50001157 -.00048095  00000-0 -87176-3 0  9994,2 50822  53.2124 235.9082 0001700  35.4493  52.2643 15.48990123 11591,6797.816,92.964,420.837,418.525,0.0
50822.0,STARLINK-3343,PAYLOAD,2022-03-13 14:00:01,15.4898596,0.0001749,53.2124,235.5111,33.5136,159.1574,-0.0010572,-0.00058149,0.0,0 STARLINK-3343,1 50822U 22001V   22072.58334491 -.00058149  00000-0 -10572-2 0  9998,2 50822  53.2124 235.5111 0001749  33.5136 159.1574 15.48985960  3703,6797.828,92.964,420.882,418.504,0.0
50822.0,STARLINK-3343,PAYLOAD,2022-03-13 22:00:01,15.4892034,0.0001974,53.2121,233.9214,27.7521,224.8007,0.00082856,0.00045273,0.0,0 STARLINK-3343,1 50822U 22001V   22072.91668981  .00045273  00000-0  82856-3 0  9996,2 50822  53.2121 233.9214 0001974  27.7521 224.8007 15.48920340  3699,6798.02,92.968,421.227,418.543,0.0
50822.0,STARLINK-3343,PAYLOAD,2022-03-14 04:00:00,15.48989624,0.0001872,53.2123,232.7266,28.7522,178.6021,0.00039001,0.00021059,0.0,0 STARLINK-3343,1 50822U 22001V   22073.16667824  .00021059  00000-0  39001-3 0  9999,2 50822  53.2123 232.7266 0001872  28.7522 178.6021 15.48989624 11695,6797.818,92.964,420.955,418.41,0.0
50822.0,STARLINK-3343,PAYLOAD,2022-03-14 12:00:00,15.49054019,0.0001891,53.2126,231.1353,32.3477,234.881,0.00070859,0.00038803,0.0,0 STARLINK-3343,1 50822U 22001V   22073.50001157  .00038803  00000-0  70859-3 0  9999,2 50822  53.2126 231.1353 0001891  32.3477 234.8810 15.49054019 11748,6797.629,92.96,420.78,418.209,0.0
50822.0,STARLINK-3343,PAYLOAD,2022-03-14 14:00:01,15.49073233,0.0001984,53.2126,230.738,30.1328,342.1366,0.00014249,7.419e-05,0.0,0 STARLINK-3343,1 50822U 22001V   22073.58335648  .00007419  00000-0  14249-3 0  9992,2 50822  53.2126 230.7380 0001984  30.1328 342.1366 15.49073233  3678,6797.573,92.959,420.787,418.089,0.0
50822.0,STARLINK-3343,PAYLOAD,2022-03-14 20:00:01,15.49041065,0.0002126,53.2129,229.5461,26.7379,300.4059,0.00077375,0.00042414,0.0,0 STARLINK-3343,1 50822U 22001V   22073.83334491  .00042414  00000-0  77375-3 0  9998,2 50822  53.2129 229.5461 0002126  26.7379 300.4059 15.49041065 11801,6797.667,92.961,420.977,418.087,0.0
50822.0,STARLINK-3343,PAYLOAD,2022-03-15 02:00:01,15.49142482,0.0001983,53.2128,228.3515,22.2408,259.8231,-0.0039093,-0.00210881,0.0,0 STARLINK-3343,1 50822U 22001V   22074.08334491 -.00210881  00000-0 -39093-2 0  9997,2 50822  53.2128 228.3515 0001983  22.2408 259.8231 15.49142482 11838,6797.37,92.955,420.583,417.887,0.0
50822.0,STARLINK-3343,PAYLOAD,2022-03-15 20:00:01,15.48848084,0.0002285,53.2135,224.7734,27.6731,118.8166,0.0017066,0.00094076,0.0,0 STARLINK-3343,1 50822U 22001V   22074.83334491  .00094076  00000-0  17066-2 0  9990,2 50822  53.2135 224.7734 0002285  27.6731 118.8166 15.48848084 11957,6798.232,92.972,421.65,418.543,0.0
50822.0,STARLINK-3343,PAYLOAD,2022-03-15 22:00:00,15.48876231,0.0002298,53.2131,224.3755,26.4471,224.9593,0.0010722,0.00058728,0.0,0 STARLINK-3343,1 50822U 22001V   22074.91667824  .00058728  00000-0  10722-2 0  9994,2 50822  53.2131 224.3755 0002298  26.4471 224.9593 15.48876231  3672,6798.149,92.971,421.577,418.452,0.0
50822.0,STARLINK-3343,PAYLOAD,2022-03-16 04:00:00,15.488758,0.0002169,53.2134,223.1808,29.6981,176.4881,0.0011402,0.0006251,0.0,0 STARLINK-3343,1 50822U 22001V   22075.16667824  .00062510  00000-0  11402-2 0  9992,2 50822  53.2134 223.1808 0002169  29.6981 176.4881 15.48875800 12008,6798.151,92.971,421.49,418.541,0.0
50822.0,STARLINK-3343,PAYLOAD,2022-03-16 14:00:01,15.49003522,0.0002195,53.2134,221.1933,25.9271,344.9253,-0.0021126,-0.00114998,0.0,0 STARLINK-3343,1 50822U 22001V   22075.58334491 -.00114998  00000-0 -21126-2 0  9993,2 50822  53.2134 221.1933 0002195  25.9271 344.9253 15.49003522  3678,6797.776999999999,92.963,421.134,418.15,0.0
50822.0,STARLINK-3343,PAYLOAD,2022-03-16 20:00:01,15.48890968,0.0002321,53.2132,220.0012,21.8396,303.881,0.00039801,0.00021426,0.0,0 STARLINK-3343,1 50822U 22001V   22075.83334491  .00021426  00000-0  39801-3 0  9992,2 50822  53.2132 220.0012 0002321  21.8396 303.8810 15.48890968 12115,6798.106,92.97,421.549,418.393,0.0
50822.0,STARLINK-3343,PAYLOAD,2022-03-17 14:00:01,15.48983232,0.000235,53.2133,216.4209,26.8112,163.3627,-0.0014512,-0.00079437,0.0,0 STARLINK-3343,1 50822U 22001V   22076.58334491 -.00079437  00000-0 -14512-2 0  9993,2 50822  53.2133 216.4209 0002350  26.8112 163.3627 15.48983232 12220,6797.8359999999975,92.964,421.299,418.104,0.0
50822.0,STARLINK-3343,PAYLOAD,2022-03-17 22:00:00,15.48936331,0.0002488,53.2136,214.8298,23.8681,226.0992,9.1641e-05,4.586e-05,0.0,0 STARLINK-3343,1 50822U 22001V   22076.91667824  .00004586  00000-0  91641-4 0  9990,2 50822  53.2136 214.8298 0002488  23.8681 226.0992 15.48936331  3683,6797.973000000001,92.967,421.53,418.147,0.0
50822.0,STARLINK-3343,PAYLOAD,2022-03-18 06:00:00,15.49016428,0.0002104,53.2152,213.2339,26.4474,283.2870000000001,-0.0040286,-0.002162,0.0,0 STARLINK-3343,1 50822U 22001V   22077.25001157 -.00216200  00000-0 -40286-2 0  9996,2 50822  53.2152 213.2339 0002104  26.4474 283.2870 15.49016428 12322,6797.739000000001,92.962,421.034,418.174,0.0
